QIANFAN-9               
1 60387U 24140J   25343.42561433  .00000135  00000+0  19051-3 0  9997
2 60387  88.9761 299.6794 0015071 201.7708 158.2804 13.50980782 66889
QIANFAN-10              
1 60388U 24140K   25343.50386848  .00000137  00000+0  19300-3 0  9991
2 60388  88.9771 299.0180 0014258 177.0581 183.0657 13.50981283 67020
QIANFAN-11              
1 60389U 24140L   25343.46687957  .00000146  00000+0  20803-3 0  9992
2 60389  88.9696 299.6116 0013138 200.4755 159.5871 13.50977566 66677
QIANFAN-12              
1 60390U 24140M   25343.41331058  .00000133  00000+0  18792-3 0  9997
2 60390  88.9740 299.6592 0011728 209.0592 150.9907 13.50978351 66795
QIANFAN-13              
1 60391U 24140N   25343.45857308  .00000132  00000+0  18638-3 0  9991
2 60391  88.9752 299.7540 0011492 211.7933 148.2525 13.50978844 66827
QIANFAN-14              
1 60392U 24140P   25343.40910182  .00000121  00000+0  16904-3 0  9999
2 60392  88.9731 299.6574 0015151 213.3460 146.6738 13.50978358 66828
QIANFAN-15              
1 60393U 24140Q   25343.41738799  .00000126  00000+0  17687-3 0  9997
2 60393  88.9754 299.6122 0011349 196.3097 163.7691 13.50977156 66816
QIANFAN-16              
1 60394U 24140R   25343.40517183  .00000132  00000+0  18597-3 0  9997
2 60394  88.9757 299.7335 0013013 216.9836 143.0419 13.50982504 66729
